[{"OBJECT_NAME":"REIMEI (INDEX)","OBJECT_ID":"2005-031B","EPOCH":"2026-03-09T21:15:47.083968","MEAN_MOTION":15.09838737,"ECCENTRICITY":0.00209792,"INCLINATION":97.9988,"RA_OF_ASC_NODE":188.389,"ARG_OF_PERICENTER":89.5619,"MEAN_ANOMALY":270.8013,"EPHEMERIS_TYPE":0,"CLASSIFICATION_TYPE":"U","NORAD_CAT_ID":28810,"ELEMENT_SET_NO":999,"REV_AT_EPOCH":11600,"BSTAR":0.00050498736,"MEAN_MOTION_DOT":8.144e-5,"MEAN_MOTION_DDOT":0},{"OBJECT_NAME":"STARLINK-35125","OBJECT_ID":"2025-200Q","EPOCH":"2026-03-09T17:42:33.422976","MEAN_MOTION":15.05647389,"ECCENTRICITY":0.000143,"INCLINATION":97.6031,"RA_OF_ASC_NODE":139.7774,"ARG_OF_PERICENTER":44.204,"MEAN_ANOMALY":315.9301,"EPHEMERIS_TYPE":0,"CLASSIFICATION_TYPE":"U","NORAD_CAT_ID":65534,"ELEMENT_SET_NO":999,"REV_AT_EPOCH":2913,"BSTAR":0.00042713843,"MEAN_MOTION_DOT":6.107e-5,"MEAN_MOTION_DDOT":0}]
